[{"OBJECT_NAME":"STARLINK-1801","OBJECT_ID":"2020-073AH","EPOCH":"2026-03-10T00:00:02.999808","MEAN_MOTION":15.71605578,"ECCENTRICITY":0.00058448,"INCLINATION":53.0451,"RA_OF_ASC_NODE":196.4487,"ARG_OF_PERICENTER":213.6688,"MEAN_ANOMALY":260.6117,"EPHEMERIS_TYPE":0,"CLASSIFICATION_TYPE":"U","NORAD_CAT_ID":46701,"ELEMENT_SET_NO":999,"REV_AT_EPOCH":590,"BSTAR":4.5163381e-5,"MEAN_MOTION_DOT":5.32e-5,"MEAN_MOTION_DDOT":0},{"OBJECT_NAME":"STARLINK-11712 [DTC]","OBJECT_ID":"2025-111N","EPOCH":"2026-03-09T10:17:23.570592","MEAN_MOTION":15.70973638,"ECCENTRICITY":0.00015903,"INCLINATION":43.0002,"RA_OF_ASC_NODE":335.8158,"ARG_OF_PERICENTER":296.9642,"MEAN_ANOMALY":63.1063,"EPHEMERIS_TYPE":0,"CLASSIFICATION_TYPE":"U","NORAD_CAT_ID":64135,"ELEMENT_SET_NO":999,"REV_AT_EPOCH":4659,"BSTAR":0.0020721076,"MEAN_MOTION_DOT":0.00275995,"MEAN_MOTION_DDOT":0}]
